[{"OBJECT_NAME":"STARLINK-34950","OBJECT_ID":"2025-175V","EPOCH":"2026-03-09T14:59:22.156800","MEAN_MOTION":15.0565737,"ECCENTRICITY":0.000252,"INCLINATION":97.6017,"RA_OF_ASC_NODE":302.6406,"ARG_OF_PERICENTER":74.5682,"MEAN_ANOMALY":285.5823,"EPHEMERIS_TYPE":0,"CLASSIFICATION_TYPE":"U","NORAD_CAT_ID":65193,"ELEMENT_SET_NO":999,"REV_AT_EPOCH":3260,"BSTAR":-4.3173e-5,"MEAN_MOTION_DOT":-6.84e-6,"MEAN_MOTION_DDOT":0},{"OBJECT_NAME":"THOR ABLESTAR DEB","OBJECT_ID":"1961-015EX","EPOCH":"2026-03-09T22:58:31.837152","MEAN_MOTION":15.04262729,"ECCENTRICITY":0.00191468,"INCLINATION":67.4961,"RA_OF_ASC_NODE":12.7011,"ARG_OF_PERICENTER":32.2919,"MEAN_ANOMALY":327.9391,"EPHEMERIS_TYPE":0,"CLASSIFICATION_TYPE":"U","NORAD_CAT_ID":461,"ELEMENT_SET_NO":999,"REV_AT_EPOCH":37086,"BSTAR":0.0020469071,"MEAN_MOTION_DOT":0.00028661,"MEAN_MOTION_DDOT":0}]
